IRIDIUM 155             
1 43573U 18061E   25201.50132459  .00000042  00000+0  81011-5 0  9998
2 43573  86.3984 195.2590 0002084  83.3690 276.7743 14.34217788365810
IRIDIUM 154             
1 43574U 18061F   25201.55206583  .00000064  00000+0  15673-4 0  9998
2 43574  86.3989 195.3548 0002281  88.6690 271.4767 14.34217978365872
IRIDIUM 163             
1 43575U 18061G   25201.46326882  .00000110  00000+0  32249-4 0  9994
2 43575  86.3985 195.3177 0002376  84.7288 275.4179 14.34218361365836
IRIDIUM 156             
1 43576U 18061H   25201.50766689  .00000049  00000+0  10300-4 0  9998
2 43576  86.3986 195.3062 0001944  85.8307 274.3111 14.34217859365830
IRIDIUM 164             
1 43577U 18061J   25201.48863997  .00000018  00000+0 -61292-6 0  9991
2 43577  86.3992 195.3492 0002130  95.0056 265.1383 14.34217512365876
IRIDIUM 159             
1 43578U 18061K   25201.45692726  .00000009  00000+0 -39915-5 0  9995
2 43578  86.3990 195.3062 0002381  90.8986 269.2483 14.34217438365830
IRIDIUM 180             
1 43922U 19002A   25201.52619083  .00000045  00000+0  90323-5 0  9996
2 43922  86.4002 132.2610 0002325  82.3828 277.7631 14.34218177341458
IRIDIUM 176             
1 43923U 19002B   25201.54454954  .00000728  00000+0  11152-3 0  9992
2 43923  86.6125 132.2433 0002361  70.3579 289.7893 14.72260616350450
IRIDIUM 168             
1 43924U 19002C   25201.51984859  .00000038  00000+0  64388-5 0  9997
2 43924  86.4004 132.3316 0002237  83.6714 276.4736 14.34217925341436
IRIDIUM 173             
1 43925U 19002D   25201.50717172  .00000209  00000+0  67645-4 0  9997
2 43925  86.4000 132.2394 0002274  79.7956 280.3496 14.34218490341427
IRIDIUM 169             
1 43926U 19002E   25201.61031902  .00000255  00000+0  76994-4 0  9998
2 43926  86.4271 163.7821 0001977  47.8403 312.2963 14.38607458342553
IRIDIUM 172             
1 43927U 19002F   25201.57059028  .00000017  00000+0 -97223-6 0  9990
2 43927  86.3999 132.2197 0002500  83.0002 277.1478 14.34217727341435
IRIDIUM 175             
1 43928U 19002G   25201.40362747  .00000623  00000+0  94802-4 0  9998
2 43928  86.1479  82.9225 0001420  95.1611 264.9768 14.72247982350423
IRIDIUM 171             
1 43929U 19002H   25201.55156013  .00000074  00000+0  19502-4 0  9996
2 43929  86.4010 132.4973 0001992  91.2757 268.8667 14.34218431341427
IRIDIUM 170             
1 43930U 19002J   25201.34682530  .00000790  00000+0  12144-3 0  9992
2 43930  86.6126 132.3302 0002295  79.1940 280.9535 14.72248979350432
IRIDIUM 167             
1 43931U 19002K   25201.33591290  .00000006  00000+0 -47609-5 0  9991
2 43931  86.4002 132.3373 0001691  85.2556 274.8833 14.34217674341396
IRIDIUM 181             
1 56726U 23068S   25201.50397482  .00000171  00000+0  44881-4 0  9990
2 56726  86.4525 195.3244 0002310 103.7773 256.3685 14.43310880114597
IRIDIUM 177             
1 56727U 23068T   25201.53389110  .00000828  00000+0  10543-3 0  9999
2 56727  86.1993 126.3075 0002248  90.4471 269.7007 14.80228003117301
IRIDIUM 174             
1 56728U 23068U   25201.53837262  .00000768  00000+0  11788-3 0  9991
2 56728  86.6133 132.3639 0002976  76.4837 283.6711 14.72255416117221
IRIDIUM 178             
1 56729U 23068V   25201.38778700  .00000925  00000+0  11835-3 0  9994
2 56729  86.6589 163.9828 0002698  84.7256 275.4273 14.80231697117287
IRIDIUM 179             
1 56730U 23068W   25201.45002031  .00001001  00000+0  12823-3 0  9995
2 56730  86.6828 171.9261 0002430  87.4646 272.6854 14.80236832117293
